[{"OBJECT_NAME":"STARLINK-35901","OBJECT_ID":"2025-294P","EPOCH":"2026-03-09T22:10:45.302016","MEAN_MOTION":15.27583945,"ECCENTRICITY":0.00014275,"INCLINATION":43.0016,"RA_OF_ASC_NODE":36.8681,"ARG_OF_PERICENTER":251.9076,"MEAN_ANOMALY":108.162,"EPHEMERIS_TYPE":0,"CLASSIFICATION_TYPE":"U","NORAD_CAT_ID":67043,"ELEMENT_SET_NO":999,"REV_AT_EPOCH":1483,"BSTAR":0.0015173573,"MEAN_MOTION_DOT":0.00041734,"MEAN_MOTION_DDOT":0},{"OBJECT_NAME":"CZ-6A DEB","OBJECT_ID":"2023-168D","EPOCH":"2026-03-09T19:03:52.964928","MEAN_MOTION":15.28240044,"ECCENTRICITY":0.00013417,"INCLINATION":97.7802,"RA_OF_ASC_NODE":98.3362,"ARG_OF_PERICENTER":174.0661,"MEAN_ANOMALY":186.0594,"EPHEMERIS_TYPE":0,"CLASSIFICATION_TYPE":"U","NORAD_CAT_ID":58202,"ELEMENT_SET_NO":999,"REV_AT_EPOCH":12922,"BSTAR":0.0014474773,"MEAN_MOTION_DOT":0.00039923,"MEAN_MOTION_DDOT":0}]
